[
    {
        "Altitude(m)": 559864.131507301,
        "Argument of Periapsis(deg)": 0.006622991110713501,
        "Eccentricity": 0.0,
        "Inclination(deg)": 53.0,
        "Latitude(deg)": 52.98979239890326,
        "Longitude(deg)": 90.42442038547011,
        "Mean Anomaly(deg)": 93.72799286757758,
        "RAAN(deg)": 94.99014336852802,
        "Satellite Name": "Starlink Shell 1 423",
        "Satellite Number": 423,
        "Semi-Major Axis(m)": 6931778.249405717,
        "Time(s)": 190
    },
    {
        "Altitude(m)": 559850.9072431916,
        "Argument of Periapsis(deg)": 0.0069715695902247375,
        "Eccentricity": 0.0,
        "Inclination(deg)": 53.0,
        "Latitude(deg)": 52.93124719050063,
        "Longitude(deg)": 91.41634379462079,
        "Mean Anomaly(deg)": 94.35482407113432,
        "RAAN(deg)": 94.98962459845055,
        "Satellite Name": "Starlink Shell 1 423",
        "Satellite Number": 423,
        "Semi-Major Axis(m)": 6931778.249405717,
        "Time(s)": 200
    },
    {
        "Altitude(m)": 559835.6438233574,
        "Argument of Periapsis(deg)": 0.007320148069735974,
        "Eccentricity": 0.0,
        "Inclination(deg)": 53.0,
        "Latitude(deg)": 52.86374784906425,
        "Longitude(deg)": 92.40527265542993,
        "Mean Anomaly(deg)": 94.98165527469101,
        "RAAN(deg)": 94.98910582837307,
        "Satellite Name": "Starlink Shell 1 423",
        "Satellite Number": 423,
        "Semi-Major Axis(m)": 6931778.249405717,
        "Time(s)": 210
    },
    {
        "Altitude(m)": 559818.3504478834,
        "Argument of Periapsis(deg)": 0.007668726549247212,
        "Eccentricity": 0.0,
        "Inclination(deg)": 53.0,
        "Latitude(deg)": 52.78734357579398,
        "Longitude(deg)": 93.390801448519,
        "Mean Anomaly(deg)": 95.60848647824777,
        "RAAN(deg)": 94.9885870582956,
        "Satellite Name": "Starlink Shell 1 423",
        "Satellite Number": 423,
        "Semi-Major Axis(m)": 6931778.249405717,
        "Time(s)": 220
    },
    {
        "Altitude(m)": 559799.0375386621,
        "Argument of Periapsis(deg)": 0.00801730502875845,
        "Eccentricity": 0.0,
        "Inclination(deg)": 53.0,
        "Latitude(deg)": 52.702089636110344,
        "Longitude(deg)": 94.37253444115599,
        "Mean Anomaly(deg)": 96.23531768180449,
        "RAAN(deg)": 94.98806828821813,
        "Satellite Name": "Starlink Shell 1 423",
        "Satellite Number": 423,
        "Semi-Major Axis(m)": 6931778.249405717,
        "Time(s)": 230
    },
    {
        "Altitude(m)": 559777.71673433,
        "Argument of Periapsis(deg)": 0.008365883508269684,
        "Eccentricity": 0.0,
        "Inclination(deg)": 53.0,
        "Latitude(deg)": 52.6080471672833,
        "Longitude(deg)": 95.35008719612004,
        "Mean Anomaly(deg)": 96.86214888536117,
        "RAAN(deg)": 94.98754951814067,
        "Satellite Name": "Starlink Shell 1 423",
        "Satellite Number": 423,
        "Semi-Major Axis(m)": 6931778.249405717,
        "Time(s)": 240
    },
    {
        "Altitude(m)": 559754.4008845787,
        "Argument of Periapsis(deg)": 0.008714461987780921,
        "Eccentricity": 0.0,
        "Inclination(deg)": 53.0,
        "Latitude(deg)": 52.50528296875665,
        "Longitude(deg)": 96.32308649437017,
        "Mean Anomaly(deg)": 97.48898008891788,
        "RAAN(deg)": 94.98703074806319,
        "Satellite Name": "Starlink Shell 1 423",
        "Satellite Number": 423,
        "Semi-Major Axis(m)": 6931778.249405717,
        "Time(s)": 250
    },
    {
        "Altitude(m)": 559729.1040438857,
        "Argument of Periapsis(deg)": 0.009063040467292158,
        "Eccentricity": 0.0,
        "Inclination(deg)": 53.0,
        "Latitude(deg)": 52.393869276802036,
        "Longitude(deg)": 97.29117169259926,
        "Mean Anomaly(deg)": 98.11581129247459,
        "RAAN(deg)": 94.98651197798571,
        "Satellite Name": "Starlink Shell 1 423",
        "Satellite Number": 423,
        "Semi-Major Axis(m)": 6931778.249405717,
        "Time(s)": 260
    },
    {
        "Altitude(m)": 559701.8414646694,
        "Argument of Periapsis(deg)": 0.009411618946803396,
        "Eccentricity": 0.0,
        "Inclination(deg)": 53.0,
        "Latitude(deg)": 52.27388352522967,
        "Longitude(deg)": 98.25399599894729,
        "Mean Anomaly(deg)": 98.74264249603131,
        "RAAN(deg)": 94.98599320790824,
        "Satellite Name": "Starlink Shell 1 423",
        "Satellite Number": 423,
        "Semi-Major Axis(m)": 6931778.249405717,
        "Time(s)": 270
    },
    {
        "Altitude(m)": 559672.629589827,
        "Argument of Periapsis(deg)": 0.009760197426314633,
        "Eccentricity": 0.0,
        "Inclination(deg)": 53.0,
        "Latitude(deg)": 52.1454080938529,
        "Longitude(deg)": 99.21122615181179,
        "Mean Anomaly(deg)": 99.36947369958804,
        "RAAN(deg)": 94.98547443783076,
        "Satellite Name": "Starlink Shell 1 423",
        "Satellite Number": 423,
        "Semi-Major Axis(m)": 6931778.249405717,
        "Time(s)": 280
    },
    {
        "Altitude(m)": 559641.4860447202,
        "Argument of Periapsis(deg)": 0.01010877590582587,
        "Eccentricity": 0.0,
        "Inclination(deg)": 53.0,
        "Latitude(deg)": 52.00853004669217,
        "Longitude(deg)": 100.16254352417609,
        "Mean Anomaly(deg)": 99.99630490314473,
        "RAAN(deg)": 94.9849556677533,
        "Satellite Name": "Starlink Shell 1 423",
        "Satellite Number": 423,
        "Semi-Major Axis(m)": 6931778.249405717,
        "Time(s)": 290
    },
    {
        "Altitude(m)": 559608.4296285543,
        "Argument of Periapsis(deg)": 0.010457354385337106,
        "Eccentricity": 0.0,
        "Inclination(deg)": 53.0,
        "Latitude(deg)": 51.863340861513635,
        "Longitude(deg)": 101.10764514153949,
        "Mean Anomaly(deg)": 100.62313610670148,
        "RAAN(deg)": 94.98443689767583,
        "Satellite Name": "Starlink Shell 1 423",
        "Satellite Number": 423,
        "Semi-Major Axis(m)": 6931778.249405717,
        "Time(s)": 300
    },
    {
        "Altitude(m)": 559573.4803052114,
        "Argument of Periapsis(deg)": 0.010805932864848343,
        "Eccentricity": 0.0,
        "Inclination(deg)": 53.0,
        "Latitude(deg)": 51.70993615267866,
        "Longitude(deg)": 102.04624309914716,
        "Mean Anomaly(deg)": 101.24996731025819,
        "RAAN(deg)": 94.98391812759836,
        "Satellite Name": "Starlink Shell 1 423",
        "Satellite Number": 423,
        "Semi-Major Axis(m)": 6931778.249405717,
        "Time(s)": 310
    },
    {
        "Altitude(m)": 559536.6591934847,
        "Argument of Periapsis(deg)": 0.01115451134435958,
        "Eccentricity": 0.0,
        "Inclination(deg)": 53.0,
        "Latitude(deg)": 51.54841538902977,
        "Longitude(deg)": 102.9780654056002,
        "Mean Anomaly(deg)": 101.87679851381492,
        "RAAN(deg)": 94.98339935752087,
        "Satellite Name": "Starlink Shell 1 423",
        "Satellite Number": 423,
        "Semi-Major Axis(m)": 6931778.249405717,
        "Time(s)": 320
    },
    {
        "Altitude(m)": 559497.9885567416,
        "Argument of Periapsis(deg)": 0.011503089823870818,
        "Eccentricity": 0.0,
        "Inclination(deg)": 53.0,
        "Latitude(deg)": 51.37888160856602,
        "Longitude(deg)": 103.90285674145494,
        "Mean Anomaly(deg)": 102.50362971737161,
        "RAAN(deg)": 94.9828805874434,
        "Satellite Name": "Starlink Shell 1 423",
        "Satellite Number": 423,
        "Semi-Major Axis(m)": 6931778.249405717,
        "Time(s)": 330
    },
    {
        "Altitude(m)": 559457.4917920498,
        "Argument of Periapsis(deg)": 0.011851668303382053,
        "Eccentricity": 0.0,
        "Inclination(deg)": 53.0,
        "Latitude(deg)": 51.20144113159004,
        "Longitude(deg)": 104.82037762223152,
        "Mean Anomaly(deg)": 103.13046092092831,
        "RAAN(deg)": 94.98236181736593,
        "Satellite Name": "Starlink Shell 1 423",
        "Satellite Number": 423,
        "Semi-Major Axis(m)": 6931778.249405717,
        "Time(s)": 340
    },
    {
        "Altitude(m)": 559415.1934187213,
        "Argument of Periapsis(deg)": 0.012200246782893292,
        "Eccentricity": 0.0,
        "Inclination(deg)": 53.0,
        "Latitude(deg)": 51.01620327393295,
        "Longitude(deg)": 105.73040499452156,
        "Mean Anomaly(deg)": 103.75729212448502,
        "RAAN(deg)": 94.98184304728845,
        "Satellite Name": "Starlink Shell 1 423",
        "Satellite Number": 423,
        "Semi-Major Axis(m)": 6931778.249405717,
        "Time(s)": 350
    },
    {
        "Altitude(m)": 559371.119066295,
        "Argument of Periapsis(deg)": 0.012548825262404526,
        "Eccentricity": 0.0,
        "Inclination(deg)": 53.0,
        "Latitude(deg)": 50.82328006177534,
        "Longitude(deg)": 106.6327327558242,
        "Mean Anomaly(deg)": 104.38412332804172,
        "RAAN(deg)": 94.98132427721099,
        "Satellite Name": "Starlink Shell 1 423",
        "Satellite Number": 423,
        "Semi-Major Axis(m)": 6931778.249405717,
        "Time(s)": 360
    },
    {
        "Altitude(m)": 559325.2954620041,
        "Argument of Periapsis(deg)": 0.012897403741915765,
        "Eccentricity": 0.0,
        "Inclination(deg)": 53.0,
        "Latitude(deg)": 50.62278594948595,
        "Longitude(deg)": 107.52717068922306,
        "Mean Anomaly(deg)": 105.01095453159847,
        "RAAN(deg)": 94.98080550713351,
        "Satellite Name": "Starlink Shell 1 423",
        "Satellite Number": 423,
        "Semi-Major Axis(m)": 6931778.249405717,
        "Time(s)": 370
    }
]